{
  "type": "FeatureCollection",
  "features": [
    {
      "type": "Feature",
      "properties": {
        "norad_id": 34350,
        "name": "IRIDIUM 33 DEB",
        "group": "iridium-33-debris",
        "lat": 6.550606971714231,
        "lon": 0.16998896004122624,
        "alt_km": 747.6090873151879,
        "timestamp": "2025-12-19T18:58:41.971290+00:00",
        "meta_object_name": "IRIDIUM 33 DEB",
        "meta_object_id": "1997-051ES",
        "meta_epoch": "2025-12-19T07:23:11.638176",
        "meta_mean_motion": 14.45401246,
        "meta_eccentricity": 0.00232878,
        "meta_inclination": 86.3271,
        "meta_ra_of_asc_node": 359.9569,
        "meta_arg_of_pericenter": 114.9915,
        "meta_mean_anomaly": 260.3378,
        "meta_ephemeris_type": 0,
        "meta_classification_type": "U",
        "meta_norad_cat_id": 34350,
        "meta_element_set_no": 999,
        "meta_rev_at_epoch": 88388,
        "meta_bstar": 0.00023910832,
        "meta_mean_motion_dot": 8.64e-06,
        "meta_mean_motion_ddot": 0,
        "tle_line1": "1 34350U 97051ES  25353.30777359  .00000864  00000+0  23911-3 0  9992",
        "tle_line2": "2 34350  86.3271 359.9569 0023287 114.9915 260.3378 14.45401246883887"
      },
      "geometry": {
        "type": "Point",
        "coordinates": [
          0.16998896004122624,
          6.550606971714231
        ]
      }
    },
    {
      "type": "Feature",
      "properties": {
        "norad_id": 34366,
        "name": "IRIDIUM 33 DEB",
        "group": "iridium-33-debris",
        "lat": -15.553254739172269,
        "lon": -132.74022489319825,
        "alt_km": 713.7383653769148,
        "timestamp": "2025-12-19T18:58:41.971300+00:00",
        "meta_object_name": "IRIDIUM 33 DEB",
        "meta_object_id": "1997-051FJ",
        "meta_epoch": "2025-12-18T14:34:32.858400",
        "meta_mean_motion": 14.54103617,
        "meta_eccentricity": 0.00228949,
        "meta_inclination": 86.3697,
        "meta_ra_of_asc_node": 46.7619,
        "meta_arg_of_pericenter": 121.3306,
        "meta_mean_anomaly": 2.8167,
        "meta_ephemeris_type": 0,
        "meta_classification_type": "U",
        "meta_norad_cat_id": 34366,
        "meta_element_set_no": 999,
        "meta_rev_at_epoch": 88267,
        "meta_bstar": 0.00070491505,
        "meta_mean_motion_dot": 3.008e-05,
        "meta_mean_motion_ddot": 0,
        "tle_line1": "1 34366U 97051FJ  25352.60732475  .00003008  00000+0  70492-3 0  9990",
        "tle_line2": "2 34366  86.3697  46.7619 0022894 121.3306   2.8167 14.54103617882674"
      },
      "geometry": {
        "type": "Point",
        "coordinates": [
          -132.74022489319825,
          -15.553254739172269
        ]
      }
    },
    {
      "type": "Feature",
      "properties": {
        "norad_id": 34375,
        "name": "IRIDIUM 33 DEB",
        "group": "iridium-33-debris",
        "lat": -83.20948132036304,
        "lon": 148.25779482320166,
        "alt_km": 913.3981214061178,
        "timestamp": "2025-12-19T18:58:41.971311+00:00",
        "meta_object_name": "IRIDIUM 33 DEB",
        "meta_object_id": "1997-051FT",
        "meta_epoch": "2025-12-19T06:39:42.607008",
        "meta_mean_motion": 14.18003831,
        "meta_eccentricity": 0.01036391,
        "meta_inclination": 86.432,
        "meta_ra_of_asc_node": 180.0647,
        "meta_arg_of_pericenter": 106.2708,
        "meta_mean_anomaly": 71.2448,
        "meta_ephemeris_type": 0,
        "meta_classification_type": "U",
        "meta_norad_cat_id": 34375,
        "meta_element_set_no": 999,
        "meta_rev_at_epoch": 86804,
        "meta_bstar": 0.00032348466,
        "meta_mean_motion_dot": 7.18e-06,
        "meta_mean_motion_ddot": 0,
        "tle_line1": "1 34375U 97051FT  25353.27757647  .00000718  00000+0  32348-3 0  9995",
        "tle_line2": "2 34375  86.4320 180.0647 0103639 106.2708  71.2448 14.18003831868040"
      },
      "geometry": {
        "type": "Point",
        "coordinates": [
          148.25779482320166,
          -83.20948132036304
        ]
      }
    },
    {
      "type": "Feature",
      "properties": {
        "norad_id": 34376,
        "name": "IRIDIUM 33 DEB",
        "group": "iridium-33-debris",
        "lat": -21.228347988577386,
        "lon": 1.928592946143182,
        "alt_km": 709.0274985999858,
        "timestamp": "2025-12-19T18:58:41.971328+00:00",
        "meta_object_name": "IRIDIUM 33 DEB",
        "meta_object_id": "1997-051FU",
        "meta_epoch": "2025-12-19T07:34:56.695872",
        "meta_mean_motion": 14.62652421,
        "meta_eccentricity": 0.00279643,
        "meta_inclination": 86.2977,
        "meta_ra_of_asc_node": 3.5833,
        "meta_arg_of_pericenter": 144.9324,
        "meta_mean_anomaly": 215.3736,
        "meta_ephemeris_type": 0,
        "meta_classification_type": "U",
        "meta_norad_cat_id": 34376,
        "meta_element_set_no": 999,
        "meta_rev_at_epoch": 88103,
        "meta_bstar": 0.00097382721,
        "meta_mean_motion_dot": 5.002e-05,
        "meta_mean_motion_ddot": 0,
        "tle_line1": "1 34376U 97051FU  25353.31593398  .00005002  00000+0  97383-3 0  9993",
        "tle_line2": "2 34376  86.2977   3.5833 0027964 144.9324 215.3736 14.62652421881031"
      },
      "geometry": {
        "type": "Point",
        "coordinates": [
          1.928592946143182,
          -21.228347988577386
        ]
      }
    },
    {
      "type": "Feature",
      "properties": {
        "norad_id": 34486,
        "name": "IRIDIUM 33 DEB",
        "group": "iridium-33-debris",
        "lat": -39.49020771133752,
        "lon": 5.7901950350998925,
        "alt_km": 591.867150962832,
        "timestamp": "2025-12-19T18:58:41.971345+00:00",
        "meta_object_name": "IRIDIUM 33 DEB",
        "meta_object_id": "1997-051GB",
        "meta_epoch": "2025-12-18T13:12:33.232032",
        "meta_mean_motion": 14.96051759,
        "meta_eccentricity": 0.00138921,
        "meta_inclination": 86.3929,
        "meta_ra_of_asc_node": 9.3426,
        "meta_arg_of_pericenter": 95.5939,
        "meta_mean_anomaly": 28.9882,
        "meta_ephemeris_type": 0,
        "meta_classification_type": "U",
        "meta_norad_cat_id": 34486,
        "meta_element_set_no": 999,
        "meta_rev_at_epoch": 89073,
        "meta_bstar": 0.0017069689,
        "meta_mean_motion_dot": 0.00019258,
        "meta_mean_motion_ddot": 0,
        "tle_line1": "1 34486U 97051GB  25352.55038463  .00019258  00000+0  17070-2 0  9999",
        "tle_line2": "2 34486  86.3929   9.3426 0013892  95.5939  28.9882 14.96051759890732"
      },
      "geometry": {
        "type": "Point",
        "coordinates": [
          5.7901950350998925,
          -39.49020771133752
        ]
      }
    },
    {
      "type": "Feature",
      "properties": {
        "norad_id": 34487,
        "name": "IRIDIUM 33 DEB",
        "group": "iridium-33-debris",
        "lat": 78.43013408772201,
        "lon": 27.544942768296863,
        "alt_km": 719.6054469830488,
        "timestamp": "2025-12-19T18:58:41.971356+00:00",
        "meta_object_name": "IRIDIUM 33 DEB",
        "meta_object_id": "1997-051GC",
        "meta_epoch": "2025-12-18T07:45:56.041056",
        "meta_mean_motion": 14.43223269,
        "meta_eccentricity": 0.00331222,
        "meta_inclination": 86.3431,
        "meta_ra_of_asc_node": 9.9731,
        "meta_arg_of_pericenter": 110.9986,
        "meta_mean_anomaly": 270.0816,
        "meta_ephemeris_type": 0,
        "meta_classification_type": "U",
        "meta_norad_cat_id": 34487,
        "meta_element_set_no": 999,
        "meta_rev_at_epoch": 88329,
        "meta_bstar": 0.00015301486,
        "meta_mean_motion_dot": 5.38e-06,
        "meta_mean_motion_ddot": 0,
        "tle_line1": "1 34487U 97051GC  25352.32356529  .00000538  00000+0  15301-3 0  9998",
        "tle_line2": "2 34487  86.3431   9.9731 0033122 110.9986 270.0816 14.43223269883297"
      },
      "geometry": {
        "type": "Point",
        "coordinates": [
          27.544942768296863,
          78.43013408772201
        ]
      }
    },
    {
      "type": "Feature",
      "properties": {
        "norad_id": 34488,
        "name": "IRIDIUM 33 DEB",
        "group": "iridium-33-debris",
        "lat": 84.12738348784536,
        "lon": 83.6231436074195,
        "alt_km": 460.8110270688103,
        "timestamp": "2025-12-19T18:58:41.971366+00:00",
        "meta_object_name": "IRIDIUM 33 DEB",
        "meta_object_id": "1997-051GD",
        "meta_epoch": "2025-12-18T20:36:21.699936",
        "meta_mean_motion": 15.30898743,
        "meta_eccentricity": 0.00115528,
        "meta_inclination": 86.3236,
        "meta_ra_of_asc_node": 302.7776,
        "meta_arg_of_pericenter": 41.1127,
        "meta_mean_anomaly": 319.099,
        "meta_ephemeris_type": 0,
        "meta_classification_type": "U",
        "meta_norad_cat_id": 34488,
        "meta_element_set_no": 999,
        "meta_rev_at_epoch": 89333,
        "meta_bstar": 0.0035214405,
        "meta_mean_motion_dot": 0.0010661,
        "meta_mean_motion_ddot": 0,
        "tle_line1": "1 34488U 97051GD  25352.85858449  .00106610  00000+0  35214-2 0  9997",
        "tle_line2": "2 34488  86.3236 302.7776 0011552  41.1127 319.0990 15.30898743893334"
      },
      "geometry": {
        "type": "Point",
        "coordinates": [
          83.6231436074195,
          84.12738348784536
        ]
      }
    }
  ]
}